[{"OBJECT_NAME":"SKYSAT-C6","OBJECT_ID":"2017-068F","EPOCH":"2026-03-09T21:33:49.392576","MEAN_MOTION":15.32504544,"ECCENTRICITY":0.00036369,"INCLINATION":97.44,"RA_OF_ASC_NODE":205.7173,"ARG_OF_PERICENTER":127.5085,"MEAN_ANOMALY":232.6488,"EPHEMERIS_TYPE":0,"CLASSIFICATION_TYPE":"U","NORAD_CAT_ID":42992,"ELEMENT_SET_NO":999,"REV_AT_EPOCH":46710,"BSTAR":0.00039699196,"MEAN_MOTION_DOT":0.0001239,"MEAN_MOTION_DDOT":0},{"OBJECT_NAME":"STARLINK-33743","OBJECT_ID":"2025-069H","EPOCH":"2026-03-09T10:23:22.279200","MEAN_MOTION":15.30179898,"ECCENTRICITY":0.00011326,"INCLINATION":53.1579,"RA_OF_ASC_NODE":143.7974,"ARG_OF_PERICENTER":70.0219,"MEAN_ANOMALY":290.0903,"EPHEMERIS_TYPE":0,"CLASSIFICATION_TYPE":"U","NORAD_CAT_ID":63440,"ELEMENT_SET_NO":999,"REV_AT_EPOCH":5325,"BSTAR":0.00039775138,"MEAN_MOTION_DOT":0.00011432,"MEAN_MOTION_DDOT":0}]
